[{"OBJECT_NAME":"ONEWEB-0035","OBJECT_ID":"2020-008N","EPOCH":"2025-11-13T07:08:02.202144","MEAN_MOTION":13.1036373,"ECCENTRICITY":0.0001662,"INCLINATION":87.8797,"RA_OF_ASC_NODE":79.3234,"ARG_OF_PERICENTER":98.8649,"MEAN_ANOMALY":261.2667,"EPHEMERIS_TYPE":0,"CLASSIFICATION_TYPE":"U","NORAD_CAT_ID":45143,"ELEMENT_SET_NO":999,"REV_AT_EPOCH":27966,"BSTAR":-0.0045420938,"MEAN_MOTION_DOT":-1.572e-5,"MEAN_MOTION_DDOT":0},{"OBJECT_NAME":"ONEWEB-0036","OBJECT_ID":"2020-008P","EPOCH":"2025-11-13T06:53:41.181216","MEAN_MOTION":13.10370159,"ECCENTRICITY":0.00013014,"INCLINATION":87.8798,"RA_OF_ASC_NODE":79.2805,"ARG_OF_PERICENTER":108.9712,"MEAN_ANOMALY":251.1556,"EPHEMERIS_TYPE":0,"CLASSIFICATION_TYPE":"U","NORAD_CAT_ID":45144,"ELEMENT_SET_NO":999,"REV_AT_EPOCH":28009,"BSTAR":-0.0014023904,"MEAN_MOTION_DOT":-4.77e-6,"MEAN_MOTION_DDOT":0},{"OBJECT_NAME":"ONEWEB-0038","OBJECT_ID":"2020-008Q","EPOCH":"2025-11-13T05:58:34.515840","MEAN_MOTION":13.11416719,"ECCENTRICITY":0.00032204,"INCLINATION":87.8865,"RA_OF_ASC_NODE":64.0609,"ARG_OF_PERICENTER":120.3111,"MEAN_ANOMALY":239.8336,"EPHEMERIS_TYPE":0,"CLASSIFICATION_TYPE":"U","NORAD_CAT_ID":45145,"ELEMENT_SET_NO":999,"REV_AT_EPOCH":28202,"BSTAR":-0.0011517443,"MEAN_MOTION_DOT":-3.95e-6,"MEAN_MOTION_DDOT":0},{"OBJECT_NAME":"ONEWEB-0039","OBJECT_ID":"2020-008R","EPOCH":"2025-11-13T06:28:37.114464","MEAN_MOTION":13.10369541,"ECCENTRICITY":0.00014344,"INCLINATION":87.8799,"RA_OF_ASC_NODE":79.2992,"ARG_OF_PERICENTER":120.9182,"MEAN_ANOMALY":239.2087,"EPHEMERIS_TYPE":0,"CLASSIFICATION_TYPE":"U","NORAD_CAT_ID":45146,"ELEMENT_SET_NO":999,"REV_AT_EPOCH":27988,"BSTAR":0.001013683,"MEAN_MOTION_DOT":3.67e-6,"MEAN_MOTION_DDOT":0},{"OBJECT_NAME":"ONEWEB-0040","OBJECT_ID":"2020-008S","EPOCH":"2025-11-13T02:39:08.702496","MEAN_MOTION":13.10372062,"ECCENTRICITY":0.00016403,"INCLINATION":87.8793,"RA_OF_ASC_NODE":79.3589,"ARG_OF_PERICENTER":103.3926,"MEAN_ANOMALY":256.7385,"EPHEMERIS_TYPE":0,"CLASSIFICATION_TYPE":"U","NORAD_CAT_ID":45147,"ELEMENT_SET_NO":999,"REV_AT_EPOCH":27956,"BSTAR":0.0017303452,"MEAN_MOTION_DOT":6.17e-6,"MEAN_MOTION_DDOT":0},{"OBJECT_NAME":"ONEWEB-0043","OBJECT_ID":"2020-008U","EPOCH":"2025-11-13T06:21:27.133632","MEAN_MOTION":13.10371812,"ECCENTRICITY":0.00012244,"INCLINATION":87.8791,"RA_OF_ASC_NODE":79.3091,"ARG_OF_PERICENTER":114.5263,"MEAN_ANOMALY":245.5992,"EPHEMERIS_TYPE":0,"CLASSIFICATION_TYPE":"U","NORAD_CAT_ID":45149,"ELEMENT_SET_NO":999,"REV_AT_EPOCH":27990,"BSTAR":0.0017169483,"MEAN_MOTION_DOT":6.12e-6,"MEAN_MOTION_DDOT":0},{"OBJECT_NAME":"ONEWEB-0044","OBJECT_ID":"2020-008V","EPOCH":"2025-11-13T07:02:02.932800","MEAN_MOTION":13.10374202,"ECCENTRICITY":0.00013304,"INCLINATION":87.8798,"RA_OF_ASC_NODE":79.2954,"ARG_OF_PERICENTER":109.5435,"MEAN_ANOMALY":250.5836,"EPHEMERIS_TYPE":0,"CLASSIFICATION_TYPE":"U","NORAD_CAT_ID":45150,"ELEMENT_SET_NO":999,"REV_AT_EPOCH":28020,"BSTAR":-0.0014868109,"MEAN_MOTION_DOT":-5.06e-6,"MEAN_MOTION_DDOT":0},{"OBJECT_NAME":"ONEWEB-0045","OBJECT_ID":"2020-008W","EPOCH":"2025-11-13T05:51:02.456352","MEAN_MOTION":13.11414467,"ECCENTRICITY":0.00016896,"INCLINATION":87.8874,"RA_OF_ASC_NODE":64.0423,"ARG_OF_PERICENTER":107.3853,"MEAN_ANOMALY":252.746,"EPHEMERIS_TYPE":0,"CLASSIFICATION_TYPE":"U","NORAD_CAT_ID":45151,"ELEMENT_SET_NO":999,"REV_AT_EPOCH":28210,"BSTAR":-0.00089421733,"MEAN_MOTION_DOT":-3.04e-6,"MEAN_MOTION_DDOT":0},{"OBJECT_NAME":"ONEWEB-0047","OBJECT_ID":"2020-008X","EPOCH":"2025-11-12T14:22:53.716512","MEAN_MOTION":13.10369907,"ECCENTRICITY":0.00014769,"INCLINATION":87.8791,"RA_OF_ASC_NODE":79.4435,"ARG_OF_PERICENTER":104.8388,"MEAN_ANOMALY":255.2903,"EPHEMERIS_TYPE":0,"CLASSIFICATION_TYPE":"U","NORAD_CAT_ID":45152,"ELEMENT_SET_NO":999,"REV_AT_EPOCH":27983,"BSTAR":-0.0014892777,"MEAN_MOTION_DOT":-5.07e-6,"MEAN_MOTION_DDOT":0},{"OBJECT_NAME":"ONEWEB-0048","OBJECT_ID":"2020-008Y","EPOCH":"2025-11-13T06:45:19.629216","MEAN_MOTION":13.10371532,"ECCENTRICITY":0.00015837,"INCLINATION":87.8787,"RA_OF_ASC_NODE":79.3338,"ARG_OF_PERICENTER":99.5117,"MEAN_ANOMALY":260.6189,"EPHEMERIS_TYPE":0,"CLASSIFICATION_TYPE":"U","NORAD_CAT_ID":45153,"ELEMENT_SET_NO":999,"REV_AT_EPOCH":27953,"BSTAR":-0.00076539235,"MEAN_MOTION_DOT":-2.55e-6,"MEAN_MOTION_DDOT":0},{"OBJECT_NAME":"ONEWEB-0049","OBJECT_ID":"2020-008Z","EPOCH":"2025-11-13T06:48:54.971712","MEAN_MOTION":13.10371156,"ECCENTRICITY":0.00010329,"INCLINATION":87.879,"RA_OF_ASC_NODE":79.3239,"ARG_OF_PERICENTER":98.331,"MEAN_ANOMALY":261.7935,"EPHEMERIS_TYPE":0,"CLASSIFICATION_TYPE":"U","NORAD_CAT_ID":45154,"ELEMENT_SET_NO":999,"REV_AT_EPOCH":27975,"BSTAR":-0.00088161023,"MEAN_MOTION_DOT":-2.95e-6,"MEAN_MOTION_DDOT":0},{"OBJECT_NAME":"ONEWEB-0051","OBJECT_ID":"2020-008AA","EPOCH":"2025-11-13T05:48:35.737056","MEAN_MOTION":13.11415017,"ECCENTRICITY":0.0001646,"INCLINATION":87.8857,"RA_OF_ASC_NODE":64.0701,"ARG_OF_PERICENTER":101.3541,"MEAN_ANOMALY":258.7772,"EPHEMERIS_TYPE":0,"CLASSIFICATION_TYPE":"U","NORAD_CAT_ID":45155,"ELEMENT_SET_NO":999,"REV_AT_EPOCH":28278,"BSTAR":-0.00068404794,"MEAN_MOTION_DOT":-2.3e-6,"MEAN_MOTION_DDOT":0},{"OBJECT_NAME":"ONEWEB-0052","OBJECT_ID":"2020-008AB","EPOCH":"2025-11-13T06:41:44.343744","MEAN_MOTION":13.10369479,"ECCENTRICITY":0.00010844,"INCLINATION":87.8796,"RA_OF_ASC_NODE":79.282,"ARG_OF_PERICENTER":99.933,"MEAN_ANOMALY":260.192,"EPHEMERIS_TYPE":0,"CLASSIFICATION_TYPE":"U","NORAD_CAT_ID":45156,"ELEMENT_SET_NO":999,"REV_AT_EPOCH":27966,"BSTAR":-0.00042408948,"MEAN_MOTION_DOT":-1.35e-6,"MEAN_MOTION_DDOT":0},{"OBJECT_NAME":"ONEWEB-0053","OBJECT_ID":"2020-008AC","EPOCH":"2025-11-13T06:16:39.889056","MEAN_MOTION":13.10373528,"ECCENTRICITY":0.00016457,"INCLINATION":87.8795,"RA_OF_ASC_NODE":79.3334,"ARG_OF_PERICENTER":112.643,"MEAN_ANOMALY":247.4871,"EPHEMERIS_TYPE":0,"CLASSIFICATION_TYPE":"U","NORAD_CAT_ID":45157,"ELEMENT_SET_NO":999,"REV_AT_EPOCH":27963,"BSTAR":0.002061986,"MEAN_MOTION_DOT":7.33e-6,"MEAN_MOTION_DDOT":0},{"OBJECT_NAME":"ONEWEB-0054","OBJECT_ID":"2020-008AD","EPOCH":"2025-11-13T07:06:49.948416","MEAN_MOTION":13.1037488,"ECCENTRICITY":0.00014834,"INCLINATION":87.8796,"RA_OF_ASC_NODE":79.2989,"ARG_OF_PERICENTER":99.7797,"MEAN_ANOMALY":260.3498,"EPHEMERIS_TYPE":0,"CLASSIFICATION_TYPE":"U","NORAD_CAT_ID":45158,"ELEMENT_SET_NO":999,"REV_AT_EPOCH":27975,"BSTAR":-0.0014993183,"MEAN_MOTION_DOT":-5.11e-6,"MEAN_MOTION_DDOT":0},{"OBJECT_NAME":"ONEWEB-0056","OBJECT_ID":"2020-008AE","EPOCH":"2025-11-13T06:39:20.887776","MEAN_MOTION":13.10368879,"ECCENTRICITY":0.00014203,"INCLINATION":87.8786,"RA_OF_ASC_NODE":79.3013,"ARG_OF_PERICENTER":96.2213,"MEAN_ANOMALY":263.9076,"EPHEMERIS_TYPE":0,"CLASSIFICATION_TYPE":"U","NORAD_CAT_ID":45159,"ELEMENT_SET_NO":999,"REV_AT_EPOCH":27990,"BSTAR":-0.00023935545,"MEAN_MOTION_DOT":-7.1e-7,"MEAN_MOTION_DDOT":0}]
