ONEWEB-0035             
1 45143U 20008N   25317.29724771 -.00001572  00000+0 -45421-2 0  9998
2 45143  87.8797  79.3234 0001662  98.8649 261.2667 13.10363730279669
ONEWEB-0036             
1 45144U 20008P   25317.28728219 -.00000477  00000+0 -14024-2 0  9997
2 45144  87.8798  79.2805 0001301 108.9712 251.1556 13.10370159280095
ONEWEB-0038             
1 45145U 20008Q   25317.24901060 -.00000395  00000+0 -11517-2 0  9994
2 45145  87.8865  64.0609 0003220 120.3111 239.8336 13.11416719282026
ONEWEB-0039             
1 45146U 20008R   25317.26987401  .00000367  00000+0  10137-2 0  9994
2 45146  87.8799  79.2992 0001434 120.9182 239.2087 13.10369541279881
ONEWEB-0040             
1 45147U 20008S   25317.11051739  .00000617  00000+0  17303-2 0  9995
2 45147  87.8793  79.3589 0001640 103.3926 256.7385 13.10372062279561
ONEWEB-0043             
1 45149U 20008U   25317.26489738  .00000612  00000+0  17169-2 0  9992
2 45149  87.8791  79.3091 0001224 114.5263 245.5992 13.10371812279905
ONEWEB-0044             
1 45150U 20008V   25317.29308950 -.00000506  00000+0 -14868-2 0  9990
2 45150  87.8798  79.2954 0001330 109.5435 250.5836 13.10374202280208
ONEWEB-0045             
1 45151U 20008W   25317.24377843 -.00000304  00000+0 -89422-3 0  9998
2 45151  87.8874  64.0423 0001689 107.3853 252.7460 13.11414467282101
ONEWEB-0047             
1 45152U 20008X   25316.59923283 -.00000507  00000+0 -14893-2 0  9995
2 45152  87.8791  79.4435 0001476 104.8388 255.2903 13.10369907279835
ONEWEB-0048             
1 45153U 20008Y   25317.28147719 -.00000255  00000+0 -76539-3 0  9991
2 45153  87.8787  79.3338 0001583  99.5117 260.6189 13.10371532279531
ONEWEB-0049             
1 45154U 20008Z   25317.28396958 -.00000295  00000+0 -88161-3 0  9991
2 45154  87.8790  79.3239 0001032  98.3310 261.7935 13.10371156279754
ONEWEB-0051             
1 45155U 20008AA  25317.24208029 -.00000230  00000+0 -68405-3 0  9997
2 45155  87.8857  64.0701 0001646 101.3541 258.7772 13.11415017282784
ONEWEB-0052             
1 45156U 20008AB  25317.27898546 -.00000135  00000+0 -42409-3 0  9990
2 45156  87.8796  79.2820 0001084  99.9330 260.1920 13.10369479279665
ONEWEB-0053             
1 45157U 20008AC  25317.26157279  .00000733  00000+0  20620-2 0  9993
2 45157  87.8795  79.3334 0001645 112.6430 247.4871 13.10373528279633
ONEWEB-0054             
1 45158U 20008AD  25317.29641144 -.00000511  00000+0 -14993-2 0  9998
2 45158  87.8796  79.2989 0001483  99.7797 260.3498 13.10374880279755
ONEWEB-0056             
1 45159U 20008AE  25317.27732509 -.00000071  00000+0 -23936-3 0  9992
2 45159  87.8786  79.3013 0001420  96.2213 263.9076 13.10368879279909
